{ "822": {"name": "30761", "date": 1633255563.0, "satelite": "FENGYUN 1C DEB          ", "tle1": "1 30761U 99025ATX 21275.88485996  .00000541  00000-0  23056-3 0  9995", "tle2": "2 30761  99.0760 128.5343 0096646  81.8349 279.3779 14.26893823758459"}, "823": {"name": "30762", "date": 1633255563.0, "satelite": "FENGYUN 1C DEB          ", "tle1": "1 30762U 99025ATY 21275.85349837 -.00000078  00000-0 -22246-4 0  9994", "tle2": "2 30762  98.8952 301.2250 0204659 202.2771 334.7181 13.95142462742592"}, "824": {"name": "30763", "date": 1633255563.0, "satelite": "FENGYUN 1C DEB          ", "tle1": "1 30763U 99025ATZ 21275.93426598  .00001985  00000-0  91252-3 0  9992", "tle2": "2 30763  98.9414 275.8709 0039346  90.6499 330.3505 14.21946802751757"}, "825": {"name": "30764", "date": 1633255563.0, "satelite": "FENGYUN 1C DEB          ", "tle1": "1 30764U 99025AUA 21275.87517973  .00001987  00000-0  20331-3 0  9996", "tle2": "2 30764  98.7723  44.0487 0184822  94.1495  35.7945 14.80069944783480"}, "826": {"name": "30765", "date": 1633255563.0, "satelite": "FENGYUN 1C DEB          ", "tle1": "1 30765U 99025AUB 21275.91277895  .00000333  00000-0  21380-3 0  9997", "tle2": "2 30765  98.9472 320.0645 0072966 217.9296 317.9444 14.08795174753461"}, "827": {"name": "30766", "date": 1633255563.0, "satelite": "FENGYUN 1C DEB          ", "tle1": "1 30766U 99025AUC 21275.38023403  .00000333  00000-0  22577-3 0  9992", "tle2": "2 30766  98.7668 312.9752 0089298  75.3491 298.4267 14.04746018412541"}, "828": {"name": "30768", "date": 1633255563.0, "satelite": "FENGYUN 1C DEB          ", "tle1": "1 30768U 99025AUE 21275.73551538  .00000982  00000-0  42252-3 0  9990", "tle2": "2 30768  98.7082 342.4474 0035213 302.4029 181.5575 14.26618675759113"}, "829": {"name": "30770", "date": 1633255563.0, "satelite": "FENGYUN 1C DEB          ", "tle1": "1 30770U 99025AUG 21275.88475988  .00000149  00000-0  10245-3 0  9995", "tle2": "2 30770  98.7469 303.1317 0013324 341.8538 142.1044 14.13186016752567"}, "830": {"name": "30771", "date": 1633255563.0, "satelite": "FENGYUN 1C DEB          ", "tle1": "1 30771U 99025AUH 21275.78210074  .00001379  00000-0  68786-3 0  9997", "tle2": "2 30771  98.8370 207.9926 0034502  57.0756 303.3730 14.18227352752136"}, "831": {"name": "30800", "date": 1633255563.0, "satelite": "FENGYUN 1C DEB          ", "tle1": "1 30800U 99025AUJ 21275.91481443  .00005772  00000-0  96375-3 0  9991", "tle2": "2 30800  99.0200 326.3992 0046611 201.3471 334.0538 14.69648620769557"}, "832": {"name": "30802", "date": 1633255563.0, "satelite": "FENGYUN 1C DEB          ", "tle1": "1 30802U 99025AUL 21275.68598019  .00000929  00000-0  47922-3 0  9998", "tle2": "2 30802  98.9307 329.0466 0025471 133.0203 350.5315 14.17458942754139"}, "833": {"name": "30803", "date": 1633255563.0, "satelite": "FENGYUN 1C DEB          ", "tle1": "1 30803U 99025AUM 21275.87046961  .00000872  00000-0  57395-3 0  9996", "tle2": "2 30803  99.2327 254.5176 0118607 117.2932 304.9077 14.01184894744832"}, "834": {"name": "30804", "date": 1633255563.0, "satelite": "FENGYUN 1C DEB          ", "tle1": "1 30804U 99025AUN 21275.80830877  .00000389  00000-0  95477-4 0  9994", "tle2": "2 30804  98.8927 226.8717 0208915 113.7119 279.1402 14.46159903772824"}, "835": {"name": "30805", "date": 1633255563.0, "satelite": "FENGYUN 1C DEB          ", "tle1": "1 30805U 99025AUP 21275.69042049  .00000128  00000-0  11552-3 0  9990", "tle2": "2 30805  98.9581 338.7956 0074439 209.3940 304.3306 13.99260285745115"}, "836": {"name": "30806", "date": 1633255563.0, "satelite": "FENGYUN 1C DEB          ", "tle1": "1 30806U 99025AUQ 21275.81481664  .00000479  00000-0  47699-3 0  9995", "tle2": "2 30806  99.1530   6.2447 0276342 176.0552 315.7837 13.67043767727430"}, "837": {"name": "30809", "date": 1633255563.0, "satelite": "FENGYUN 1C DEB          ", "tle1": "1 30809U 99025AUT 21275.63652433  .00000975  00000-0  51999-3 0  9991", "tle2": "2 30809  98.8623 348.1508 0061248 248.7478 110.7147 14.14733701753409"}, "838": {"name": "30810", "date": 1633255563.0, "satelite": "FENGYUN 1C DEB          ", "tle1": "1 30810U 99025AUU 21275.60723204  .00001208  00000-0  96111-3 0  9990", "tle2": "2 30810  98.6459 169.2971 0234174 303.1168  54.7706 13.80997726731005"}, "839": {"name": "30811", "date": 1633255563.0, "satelite": "FENGYUN 1C DEB          ", "tle1": "1 30811U 99025AUV 21275.90518435  .00000609  00000-0  70833-3 0  9999", "tle2": "2 30811  98.7696  91.3325 0296080  56.8699 306.0485 13.54889396721610"}, "840": {"name": "30813", "date": 1633255563.0, "satelite": "FENGYUN 1C DEB          ", "tle1": "1 30813U 99025AUX 21275.74190710  .00006905  00000-0  88541-3 0  9995", "tle2": "2 30813  98.9170 344.1901 0051958 270.2248  89.3007 14.80690271775303"}, "841": {"name": "30814", "date": 1633255563.0, "satelite": "FENGYUN 1C DEB          ", "tle1": "1 30814U 99025AUY 21275.57479133  .00001375  00000-0  56070-3 0  9994", "tle2": "2 30814  99.0983 144.4348 0054869  50.7996  15.1066 14.28311802757112"}, "842": {"name": "30815", "date": 1633255563.0, "satelite": "FENGYUN 1C DEB          ", "tle1": "1 30815U 99025AUZ 21275.90862675  .00001572  00000-0  63483-3 0  9994", "tle2": "2 30815  99.3441 270.1122 0000161   7.3454  62.8506 14.29507517756966"}, "843": {"name": "30816", "date": 1633255563.0, "satelite": "FENGYUN 1C DEB          ", "tle1": "1 30816U 99025AVA 21275.72608969  .00000981  00000-0  60966-3 0  9995", "tle2": "2 30816  99.0267 327.5737 0060677  51.1729  62.2604 14.06513187747899"}, "844": {"name": "30817", "date": 1633255563.0, "satelite": "FENGYUN 1C DEB          ", "tle1": "1 30817U 99025AVB 21276.03220277  .00000374  00000-0  28491-3 0  9996", "tle2": "2 30817  98.8282 307.6994 0066362 178.2458 181.8951 13.98512098745504"}, "845": {"name": "30820", "date": 1633255563.0, "satelite": "FENGYUN 1C DEB          ", "tle1": "1 30820U 99025AVE 21275.84428676  .00000880  00000-0  54667-3 0  9997", "tle2": "2 30820  98.6466  41.1099 0060065 226.8044 287.5303 14.06640425748000"}, "846": {"name": "30821", "date": 1633255563.0, "satelite": "FENGYUN 1C DEB          ", "tle1": "1 30821U 99025AVF 21275.27949281  .00000492  00000-0  16212-3 0  9998", "tle2": "2 30821  99.1568 292.9405 0100527  62.6386 358.7966 14.40253598766780"}, "847": {"name": "30822", "date": 1633255563.0, "satelite": "FENGYUN 1C DEB          ", "tle1": "1 30822U 99025AVG 21275.34205943  .00000192  00000-0  13383-3 0  9990", "tle2": "2 30822  98.9116 312.6150 0075134 293.0334  79.7262 14.08826256751090"}, "848": {"name": "30823", "date": 1633255563.0, "satelite": "FENGYUN 1C DEB          ", "tle1": "1 30823U 99025AVH 21275.52796963 -.00000028  00000-0  76994-5 0  9996", "tle2": "2 30823  98.6221 113.3310 0140346  45.2235  17.6178 13.99793517745816"}, "849": {"name": "30826", "date": 1633255563.0, "satelite": "FENGYUN 1C DEB          ", "tle1": "1 30826U 99025AVL 21275.59593201  .00000795  00000-0  12756-3 0  9990", "tle2": "2 30826  98.8588 322.4744 0195380  88.7589  67.9034 14.63010093777786"}, "850": {"name": "30827", "date": 1633255563.0, "satelite": "FENGYUN 1C DEB          ", "tle1": "1 30827U 99025AVM 21275.78960873  .00001415  00000-0  79026-3 0  9998", "tle2": "2 30827  98.9546 215.1213 0062116 244.4945 114.9793 14.11533325747927"}, "851": {"name": "30828", "date": 1633255563.0, "satelite": "FENGYUN 1C DEB          ", "tle1": "1 30828U 99025AVN 21275.49142859  .00001898  00000-0  31891-3 0  9996", "tle2": "2 30828  98.4646 350.2492 0323185 220.0969 152.6467 14.41921956763745"}, "852": {"name": "30829", "date": 1633255563.0, "satelite": "FENGYUN 1C DEB          ", "tle1": "1 30829U 99025AVP 21275.87317026  .00000042  00000-0  51836-4 0  9991", "tle2": "2 30829  98.7796 295.2327 0036396 326.9686  32.9209 14.05720322748939"}, "853": {"name": "30830", "date": 1633255563.0, "satelite": "FENGYUN 1C DEB          ", "tle1": "1 30830U 99025AVQ 21275.78667424  .00000191  00000-0  13183-3 0  9990", "tle2": "2 30830  98.7004 291.7364 0031319 218.2000 315.0217 14.10082633749968"}, "854": {"name": "30831", "date": 1633255563.0, "satelite": "FENGYUN 1C DEB          ", "tle1": "1 30831U 99025AVR 21275.82569579  .00000212  00000-0  10538-3 0  9993", "tle2": "2 30831  99.3441 308.9663 0059457 109.6691 251.0916 14.26955815433790"}, "855": {"name": "30832", "date": 1633255563.0, "satelite": "FENGYUN 1C DEB          ", "tle1": "1 30832U 99025AVS 21275.30267400  .00001064  00000-0  91261-3 0  9993", "tle2": "2 30832 100.3722  83.2540 0179143 185.5666 174.3494 13.82428973  9005"}, "856": {"name": "30833", "date": 1633255563.0, "satelite": "FENGYUN 1C DEB          ", "tle1": "1 30833U 99025AVT 21275.06514970  .00000326  00000-0  17052-3 0  9990", "tle2": "2 30833  99.8263 218.7947 0034999 146.1401 214.2017 14.22079851426003"}, "857": {"name": "30835", "date": 1633255563.0, "satelite": "FENGYUN 1C DEB          ", "tle1": "1 30835U 99025AVV 21275.87794140  .00010726  00000-0  51723-3 0  9998", "tle2": "2 30835  98.7434 152.0813 0116719  37.3463 323.5806 15.13030495791844"}, "858": {"name": "30836", "date": 1633255563.0, "satelite": "FENGYUN 1C DEB          ", "tle1": "1 30836U 99025AVW 21275.88914042  .00000278  00000-0  18465-3 0  9992", "tle2": "2 30836  98.9254 314.3908 0026134 252.4141 107.4174 14.09360305750717"}, "859": {"name": "30837", "date": 1633255563.0, "satelite": "FENGYUN 1C DEB          ", "tle1": "1 30837U 99025AVX 21276.05145920  .00000192  00000-0  12748-3 0  9997", "tle2": "2 30837  98.6494 294.0510 0033930 182.5402 239.1751 14.11850678752030"}, "860": {"name": "30838", "date": 1633255563.0, "satelite": "FENGYUN 1C DEB          ", "tle1": "1 30838U 99025AVY 21275.49393644  .00001365  00000-0  59896-3 0  9991", "tle2": "2 30838  99.1141  95.2910 0056040 300.3014  59.2626 14.24575983755242"}}